{"weatherObservations":[{"lng":-93.2,"observation":"KBBG 242245Z 26006KT 10SM SCT250 34/24 A3000","ICAO":"KBBG","clouds":"scattered clouds","dewPoint":"24","cloudsCode":"SCT","datetime":"2015-07-24 22:45:00","temperature":"34","humidity":56,"stationName":"BRANSON","weatherCondition":"n/a","windDirection":260,"windSpeed":"06","lat":36.53333333333333},{"lng":-76.55,"observation":"K2W6 242242Z AUTO 00000KT 10SM CLR 26/14 A2996 RMK AO1","ICAO":"K2W6","clouds":"n/a","dewPoint":"14","datetime":"2015-07-24 22:42:00","temperature":"26","humidity":47,"stationName":"ST MARYS (DUKE)","weatherCondition":"n/a","windDirection":0,"windSpeed":"00","lat":38.31666666666667},{"lng":-76.03333333333333,"observation":"KCGE 242242Z AUTO 01003KT 10SM CLR 27/11 A2994 RMK AO1","ICAO":"KCGE","clouds":"n/a","dewPoint":"11","datetime":"2015-07-24 22:42:00","temperature":"27","humidity":36,"stationName":"CAMBRIDGE-DORCH","weatherCondition":"n/a","windDirection":10,"windSpeed":"03","lat":38.53333333333333},{"lng":-76.33333333333333,"observation":"KW29 242242Z AUTO 00000KT 10SM 28/11 A2994 RMK AO1","ICAO":"KW29","clouds":"n/a","dewPoint":"11","datetime":"2015-07-24 22:42:00","temperature":"28","humidity":34,"stationName":"STEVENSVILLE","weatherCondition":"n/a","windDirection":0,"windSpeed":"00","lat":38.983333333333334},{"lng":-79.33333333333333,"observation":"K2G4 242240Z AUTO 28005KT 10SM SCT038 SCT055 22/20 A3008 RMK AO1","ICAO":"K2G4","clouds":"scattered clouds","dewPoint":"20","cloudsCode":"SCT","datetime":"2015-07-24 22:40:00","temperature":"22","humidity":88,"stationName":"GARRETT CO","weatherCondition":"n/a","windDirection":280,"windSpeed":"05","lat":39.583333333333336},{"lng":-77,"observation":"KDMW 242240Z AUTO 00000KT 10SM CLR 27/14 A2997 RMK AO2","ICAO":"KDMW","clouds":"n/a","dewPoint":"14","datetime":"2015-07-24 22:40:00","temperature":"27","humidity":44,"stationName":"CARROLL CNTY","weatherCondition":"n/a","windDirection":0,"windSpeed":"00","lat":39.6},{"lng":-90.45,"observation":"KGRY 242240Z AUTO 27008KT 240V300 10SM CLR 32/23 A3002 RMK A01","ICAO":"KGRY","clouds":"n/a","dewPoint":"23","datetime":"2015-07-24 22:40:00","temperature":"32","humidity":59,"stationName":"GREEN CANYON 338","weatherCondition":"n/a","windDirection":270,"windSpeed":"08","lat":27.633333333333333},{"lng":-82.56661,"observation":"KPBX 242240Z AUTO 01004KT 10SM SCT049 26/17 A3003 RMK AO2 T02600174","ICAO":"KPBX","clouds":"scattered clouds","dewPoint":"17.4","cloudsCode":"SCT","datetime":"2015-07-24 22:40:00","temperature":"26","humidity":59,"stationName":"Pike County Airport-Hatcher Field","weatherCondition":"n/a","windDirection":10,"windSpeed":"04","lat":37.56174},{"lng":128.06666666666666,"observation":"KQEI 242240Z AUTO 30001KT 2000 -RA BR BKN022 23/21 A2978 RMK A02 TSNO","ICAO":"KQEI","clouds":"broken clouds","dewPoint":"21","cloudsCode":"BKN","datetime":"2015-07-24 22:40:00","temperature":"23","humidity":88,"stationName":"SINNAM TMQ-53P","weatherCondition":"n/a","windDirection":300,"windSpeed":"01","lat":37.95},{"lng":127.95,"observation":"KQEJ 242240Z AUTO 21001KT 1200 +RA BR BKN003 23/21 A2972 RMK A02 TSNO","ICAO":"KQEJ","clouds":"broken clouds","dewPoint":"21","cloudsCode":"BKN","datetime":"2015-07-24 22:40:00","temperature":"23","humidity":88,"stationName":"BANGSAN TMQ-53P","weatherCondition":"n/a","windDirection":210,"windSpeed":"01","lat":38.2}]}